start=new Date('2023-01-18T00:00:00.000Z').valueOf();
sats=[{"LAUNCH_DATE":"2021-05-15","MEAN_MOTION":"15.06398117","EPOCH":"2023-01-17T21:21:28.602432","FILE":"3753286","DECAY_DATE":null,"OBJECT_TYPE":"PAYLOAD","CLASSIFICATION_TYPE":"U","PERIAPSIS":"546.454","CENTER_NAME":"EARTH","APOAPSIS":"547.985","SEMIMAJOR_AXIS":"6925.354","TIME_SYSTEM":"UTC","COUNTRY_CODE":"US","MEAN_ANOMALY":"272.6515","TLE_LINE2":"2 48583  53.0535 249.8050 0001105  87.4600 272.6515 15.06398117 92214","GP_ID":"223379839","RA_OF_ASC_NODE":"249.8050","EPHEMERIS_TYPE":"0","INCLINATION":"53.0535","MEAN_ELEMENT_THEORY":"SGP4","PERIOD":"95.592","ECCENTRICITY":"0.00011050","SITE":"AFETR","MEAN_MOTION_DOT":"0.00002004","BSTAR":"0.00015341000000","TLE_LINE1":"1 48583U 21041AG  23017.88991438  .00002004  00000-0  15341-3 0  9992","REV_AT_EPOCH":"9221","REF_FRAME":"TEME","NORAD_CAT_ID":"48583","ARG_OF_PERICENTER":"87.4600","ELEMENT_SET_NO":"999","OBJECT_NAME":"STARLINK-2237","OBJECT_ID":"2021-041AG","RCS_SIZE":"LARGE","MEAN_MOTION_DDOT":"0.0000000000000"},{"RA_OF_ASC_NODE":"249.3299","TLE_LINE2":"2 48584  53.0528 249.3299 0001656  82.2429 277.8748 15.06396239 92623","GP_ID":"223357339","MEAN_ANOMALY":"277.8748","COUNTRY_CODE":"US","TIME_SYSTEM":"UTC","APOAPSIS":"548.372","CENTER_NAME":"EARTH","SEMIMAJOR_AXIS":"6925.360","MEAN_ELEMENT_THEORY":"SGP4","INCLINATION":"53.0528","EPHEMERIS_TYPE":"0","PERIAPSIS":"546.078","CLASSIFICATION_TYPE":"U","OBJECT_TYPE":"PAYLOAD","FILE":"3753216","DECAY_DATE":null,"EPOCH":"2023-01-17T23:55:24.530880","MEAN_MOTION":"15.06396239","LAUNCH_DATE":"2021-05-15","ARG_OF_PERICENTER":"82.2429","NORAD_CAT_ID":"48584","MEAN_MOTION_DDOT":"0.0000000000000","OBJECT_ID":"2021-041AH","RCS_SIZE":"LARGE","OBJECT_NAME":"STARLINK-2238","ELEMENT_SET_NO":"999","MEAN_MOTION_DOT":"0.00003299","SITE":"AFETR","ECCENTRICITY":"0.00016560","PERIOD":"95.592","REF_FRAME":"TEME","REV_AT_EPOCH":"9262","TLE_LINE1":"1 48584U 21041AH  23017.99681170  .00003299  00000-0  24032-3 0  9998","BSTAR":"0.00024032000000"},{"DECAY_DATE":null,"FILE":"3753023","EPOCH":"2023-01-17T08:15:55.922400","PERIAPSIS":"546.363","CLASSIFICATION_TYPE":"U","OBJECT_TYPE":"PAYLOAD","LAUNCH_DATE":"2021-05-15","MEAN_MOTION":"15.06394829","MEAN_ELEMENT_THEORY":"SGP4","INCLINATION":"53.0525","EPHEMERIS_TYPE":"0","MEAN_ANOMALY":"256.1769","RA_OF_ASC_NODE":"252.2649","TLE_LINE2":"2 48585  53.0525 252.2649 0001251 103.9359 256.1769 15.06394829 92128","GP_ID":"223320981","TIME_SYSTEM":"UTC","SEMIMAJOR_AXIS":"6925.364","APOAPSIS":"548.096","CENTER_NAME":"EARTH","COUNTRY_CODE":"US","REF_FRAME":"TEME","REV_AT_EPOCH":"9212","TLE_LINE1":"1 48585U 21041AJ  23017.34439725  .00000269  00000-0  36931-4 0  9991","BSTAR":"0.00003693100000","SITE":"AFETR","ECCENTRICITY":"0.00012510","MEAN_MOTION_DOT":"0.00000269","PERIOD":"95.592","RCS_SIZE":"LARGE","OBJECT_ID":"2021-041AJ","MEAN_MOTION_DDOT":"0.0000000000000","ELEMENT_SET_NO":"999","OBJECT_NAME":"STARLINK-2240","ARG_OF_PERICENTER":"103.9359","NORAD_CAT_ID":"48585"},{"EPHEMERIS_TYPE":"0","INCLINATION":"53.0542","MEAN_ELEMENT_THEORY":"SGP4","SEMIMAJOR_AXIS":"6925.377","APOAPSIS":"548.186","CENTER_NAME":"EARTH","TIME_SYSTEM":"UTC","COUNTRY_CODE":"US","MEAN_ANOMALY":"278.0057","TLE_LINE2":"2 48586  53.0542 252.2872 0001363  82.1087 278.0057 15.06390763 92122","GP_ID":"223322233","RA_OF_ASC_NODE":"252.2872","LAUNCH_DATE":"2021-05-15","MEAN_MOTION":"15.06390763","EPOCH":"2023-01-17T08:05:18.950496","FILE":"3753023","DECAY_DATE":null,"OBJECT_TYPE":"PAYLOAD","CLASSIFICATION_TYPE":"U","PERIAPSIS":"546.298","ELEMENT_SET_NO":"999","OBJECT_NAME":"STARLINK-2241","RCS_SIZE":"LARGE","OBJECT_ID":"2021-041AK","MEAN_MOTION_DDOT":"0.0000000000000","NORAD_CAT_ID":"48586","ARG_OF_PERICENTER":"82.1087","BSTAR":"-0.00004337400000","TLE_LINE1":"1 48586U 21041AK  23017.33702489 -.00000927  00000-0 -43374-4 0  9993","REV_AT_EPOCH":"9212","REF_FRAME":"TEME","PERIOD":"95.593","ECCENTRICITY":"0.00013630","SITE":"AFETR","MEAN_MOTION_DOT":"-0.00000927"},{"RCS_SIZE":"LARGE","OBJECT_ID":"2021-041AL","MEAN_MOTION_DDOT":"0.0000000000000","ELEMENT_SET_NO":"999","OBJECT_NAME":"STARLINK-2242","ARG_OF_PERICENTER":"82.1148","NORAD_CAT_ID":"48587","REF_FRAME":"TEME","TLE_LINE1":"1 48587U 21041AL  23017.34071075 -.00001256  00000-0 -65444-4 0  9993","BSTAR":"-0.00006544400000","REV_AT_EPOCH":"9212","SITE":"AFETR","ECCENTRICITY":"0.00011180","MEAN_MOTION_DOT":"-0.00001256","PERIOD":"95.593","INCLINATION":"53.0526","MEAN_ELEMENT_THEORY":"SGP4","EPHEMERIS_TYPE":"0","MEAN_ANOMALY":"277.9968","GP_ID":"223321979","TLE_LINE2":"2 48587  53.0526 252.2714 0001118  82.1148 277.9968 15.06390791 92126","RA_OF_ASC_NODE":"252.2714","SEMIMAJOR_AXIS":"6925.377","APOAPSIS":"548.016","CENTER_NAME":"EARTH","TIME_SYSTEM":"UTC","COUNTRY_CODE":"US","EPOCH":"2023-01-17T08:10:37.408800","FILE":"3753023","DECAY_DATE":null,"OBJECT_TYPE":"PAYLOAD","CLASSIFICATION_TYPE":"U","PERIAPSIS":"546.468","LAUNCH_DATE":"2021-05-15","MEAN_MOTION":"15.06390791"},{"ELEMENT_SET_NO":"999","OBJECT_NAME":"STARLINK-2244","RCS_SIZE":"LARGE","OBJECT_ID":"2021-041AM","MEAN_MOTION_DDOT":"0.0000000000000","NORAD_CAT_ID":"48588","ARG_OF_PERICENTER":"72.5586","BSTAR":"0.00090569000000","TLE_LINE1":"1 48588U 21041AM  23017.98300381  .00013231  00000-0  90569-3 0  9998","REV_AT_EPOCH":"9281","REF_FRAME":"TEME","PERIOD":"95.593","ECCENTRICITY":"0.00013030","SITE":"AFETR","MEAN_MOTION_DOT":"0.00013231","EPHEMERIS_TYPE":"0","INCLINATION":"53.0507","MEAN_ELEMENT_THEORY":"SGP4","SEMIMAJOR_AXIS":"6925.373","APOAPSIS":"548.141","CENTER_NAME":"EARTH","TIME_SYSTEM":"UTC","COUNTRY_CODE":"US","MEAN_ANOMALY":"287.5545","TLE_LINE2":"2 48588  53.0507 239.3887 0001303  72.5586 287.5545 15.06391953 92813","GP_ID":"223357184","RA_OF_ASC_NODE":"239.3887","LAUNCH_DATE":"2021-05-15","MEAN_MOTION":"15.06391953","FILE":"3753220","DECAY_DATE":null,"EPOCH":"2023-01-17T23:35:31.529184","OBJECT_TYPE":"PAYLOAD","CLASSIFICATION_TYPE":"U","PERIAPSIS":"546.336"},{"MEAN_ANOMALY":"277.1412","GP_ID":"223321482","TLE_LINE2":"2 48589  53.0536 242.3823 0000960  82.9686 277.1412 15.06416213 92268","RA_OF_ASC_NODE":"242.3823","SEMIMAJOR_AXIS":"6925.299","APOAPSIS":"547.829","CENTER_NAME":"EARTH","TIME_SYSTEM":"UTC","COUNTRY_CODE":"US","INCLINATION":"53.0536","MEAN_ELEMENT_THEORY":"SGP4","EPHEMERIS_TYPE":"0","FILE":"3753023","EPOCH":"2023-01-17T07:34:47.614368","DECAY_DATE":null,"OBJECT_TYPE":"PAYLOAD","PERIAPSIS":"546.499","CLASSIFICATION_TYPE":"U","LAUNCH_DATE":"2021-05-15","MEAN_MOTION":"15.06416213","ARG_OF_PERICENTER":"82.9686","NORAD_CAT_ID":"48589","RCS_SIZE":"LARGE","OBJECT_ID":"2021-041AN","MEAN_MOTION_DDOT":"0.0000000000000","ELEMENT_SET_NO":"999","OBJECT_NAME":"STARLINK-2245","ECCENTRICITY":"0.00009600","SITE":"AFETR","MEAN_MOTION_DOT":"0.00037190","PERIOD":"95.591","REF_FRAME":"TEME","TLE_LINE1":"1 48589U 21041AN  23017.31582887  .00037190  00000-0  25014-2 0  9991","BSTAR":"0.00250140000000","REV_AT_EPOCH":"9226"},{"PERIOD":"95.592","ECCENTRICITY":"0.00012960","SITE":"AFETR","MEAN_MOTION_DOT":"0.00008424","TLE_LINE1":"1 48591U 21041AQ  23017.89726557  .00008424  00000-0  58374-3 0  9995","BSTAR":"0.00058374000000","REV_AT_EPOCH":"9325","REF_FRAME":"TEME","NORAD_CAT_ID":"48591","ARG_OF_PERICENTER":"80.8041","ELEMENT_SET_NO":"999","OBJECT_NAME":"STARLINK-2248","RCS_SIZE":"LARGE","OBJECT_ID":"2021-041AQ","MEAN_MOTION_DDOT":"0.0000000000000","LAUNCH_DATE":"2021-05-15","MEAN_MOTION":"15.06398475","EPOCH":"2023-01-17T21:32:03.745248","FILE":"3753286","DECAY_DATE":null,"OBJECT_TYPE":"PAYLOAD","PERIAPSIS":"546.321","CLASSIFICATION_TYPE":"U","CENTER_NAME":"EARTH","APOAPSIS":"548.116","SEMIMAJOR_AXIS":"6925.353","TIME_SYSTEM":"UTC","COUNTRY_CODE":"US","MEAN_ANOMALY":"279.3095","GP_ID":"223379590","TLE_LINE2":"2 48591  53.0512 239.7731 0001296  80.8041 279.3095 15.06398475 93258","RA_OF_ASC_NODE":"239.7731","EPHEMERIS_TYPE":"0","INCLINATION":"53.0512","MEAN_ELEMENT_THEORY":"SGP4"},{"REF_FRAME":"TEME","TLE_LINE1":"1 48592U 21041AR  23017.90740012 -.00002655  00000-0 -15944-3 0  9998","BSTAR":"-0.00015944000000","REV_AT_EPOCH":"9221","SITE":"AFETR","ECCENTRICITY":"0.00013200","MEAN_MOTION_DOT":"-0.00002655","PERIOD":"95.592","RCS_SIZE":"MEDIUM","OBJECT_ID":"2021-041AR","MEAN_MOTION_DDOT":"0.0000000000000","ELEMENT_SET_NO":"999","OBJECT_NAME":"STARLINK-2249","ARG_OF_PERICENTER":"89.1273","NORAD_CAT_ID":"48592","FILE":"3753286","EPOCH":"2023-01-17T21:46:39.370368","DECAY_DATE":null,"OBJECT_TYPE":"PAYLOAD","CLASSIFICATION_TYPE":"U","PERIAPSIS":"546.303","LAUNCH_DATE":"2021-05-15","MEAN_MOTION":"15.06398839","INCLINATION":"53.0505","MEAN_ELEMENT_THEORY":"SGP4","EPHEMERIS_TYPE":"0","MEAN_ANOMALY":"270.9867","TLE_LINE2":"2 48592  53.0505 249.7653 0001320  89.1273 270.9867 15.06398839 92215","GP_ID":"223379840","RA_OF_ASC_NODE":"249.7653","APOAPSIS":"548.131","SEMIMAJOR_AXIS":"6925.352","CENTER_NAME":"EARTH","TIME_SYSTEM":"UTC","COUNTRY_CODE":"US"},{"REV_AT_EPOCH":"9221","TLE_LINE1":"1 48593U 21041AS  23017.91202802  .00001854  00000-0  14330-3 0  9996","BSTAR":"0.00014330000000","REF_FRAME":"TEME","PERIOD":"95.592","MEAN_MOTION_DOT":"0.00001854","ECCENTRICITY":"0.00012630","SITE":"AFETR","OBJECT_NAME":"STARLINK-2250","ELEMENT_SET_NO":"999","MEAN_MOTION_DDOT":"0.0000000000000","RCS_SIZE":"LARGE","OBJECT_ID":"2021-041AS","NORAD_CAT_ID":"48593","ARG_OF_PERICENTER":"78.2555","MEAN_MOTION":"15.06404008","LAUNCH_DATE":"2021-05-15","PERIAPSIS":"546.327","CLASSIFICATION_TYPE":"U","OBJECT_TYPE":"PAYLOAD","DECAY_DATE":null,"FILE":"3753286","EPOCH":"2023-01-17T21:53:19.220928","EPHEMERIS_TYPE":"0","MEAN_ELEMENT_THEORY":"SGP4","INCLINATION":"53.0505","COUNTRY_CODE":"US","TIME_SYSTEM":"UTC","SEMIMAJOR_AXIS":"6925.336","APOAPSIS":"548.076","CENTER_NAME":"EARTH","RA_OF_ASC_NODE":"249.7069","GP_ID":"223380591","TLE_LINE2":"2 48593  53.0505 249.7069 0001263  78.2555 281.8575 15.06404008 92218","MEAN_ANOMALY":"281.8575"}];
